OBJECT_NAME,OBJECT_ID,EPOCH,MEAN_MOTION,ECCENTRICITY,INCLINATION,RA_OF_ASC_NODE,ARG_OF_PERICENTER,MEAN_ANOMALY,EPHEMERIS_TYPE,CLASSIFICATION_TYPE,NORAD_CAT_ID,ELEMENT_SET_NO,REV_AT_EPOCH,BSTAR,MEAN_MOTION_DOT,MEAN_MOTION_DDOT
TIANMU-1 20,2023-208B,2026-07-15T12:33:39.974112,15.33168123,.00063614,97.4472,313.6437,210.7774,149.3096,0,U,58661,999,14176,.1508355E-3,.4755E-4,0
TIANMU-1 21,2023-208C,2026-07-15T14:22:08.080896,15.35556662,.0006729,97.4533,316.5249,202.6407,157.4541,0,U,58662,999,14192,.16256317E-3,.5538E-4,0
TIANMU-1 22,2023-208D,2026-07-15T13:32:55.226976,15.31430099,.000278,97.4527,312.9317,216.5135,143.5917,0,U,58663,999,14167,.13783089E-3,.4104E-4,0
TIANMU-1 15,2024-004A,2026-07-15T14:32:37.480704,15.26916796,.00060755,97.4667,22.7966,226.8412,133.2319,0,U,58700,999,14011,.11859658E-3,.3061E-4,0
TIANMU-1 16,2024-004B,2026-07-15T14:17:24.974016,15.27019699,.000447,97.4615,22.0024,243.8228,116.2552,0,U,58701,999,14011,.11355129E-3,.2936E-4,0
TIANMU-1 17,2024-004C,2026-07-15T13:56:30.700896,15.27017315,.00039307,97.4641,22.4832,250.0630,110.0185,0,U,58702,999,14010,.11534541E-3,.2983E-4,0
TIANMU-1 18,2024-004D,2026-07-15T14:56:28.587840,15.26932650,.00037962,97.4659,22.7875,222.6940,137.4004,0,U,58703,999,14011,.11367822E-3,.2931E-4,0
INSAT-3DS,2024-033A,2026-07-15T13:45:37.878912,1.00270876,.00010742,0.0901,264.6548,224.7763,92.4622,0,U,58990,999,4735,0,-.166E-5,0
METEOR-M2 4,2024-039A,2026-07-15T14:26:16.611360,14.22432128,.00082602,98.7025,155.5449,87.7614,272.4510,0,U,59051,999,12330,.7888648E-5,-.26E-6,0
GOES 19,2024-119A,2026-07-15T13:00:41.294304,1.00271363,.0000432,0.0103,100.1257,110.8305,202.4055,0,U,60133,999,724,0,-.258E-5,0
MTG-S1,2025-143A,2026-07-15T13:22:00.199200,1.00273631,.00034411,0.5843,345.1773,261.4037,246.9181,0,U,64723,999,370,0,-.17E-6,0
METOP-SGA1,2025-172A,2026-07-14T18:20:46.629312,14.19819127,.00070989,98.6631,254.9090,333.3306,26.7504,0,U,65159,999,4770,.2916334E-4,.19E-6,0
FENGYUN 3H,2025-219A,2026-07-15T10:32:00.621312,14.19924815,.0001145,98.6771,136.6595,62.5824,297.5469,0,U,65815,999,4139,.24168432E-4,.8E-7,0
