TIANMU-1 20             
1 58661U 23208B   26196.52337933  .00004755  00000+0  15084-3 0  9991
2 58661  97.4472 313.6437 0006361 210.7774 149.3096 15.33168123141766
TIANMU-1 21             
1 58662U 23208C   26196.59870464  .00005538  00000+0  16256-3 0  9992
2 58662  97.4533 316.5249 0006729 202.6407 157.4541 15.35556662141923
TIANMU-1 22             
1 58663U 23208D   26196.56452809  .00004104  00000+0  13783-3 0  9999
2 58663  97.4527 312.9317 0002780 216.5135 143.5917 15.31430099141674
TIANMU-1 15             
1 58700U 24004A   26196.60598936  .00003061  00000+0  11860-3 0  9998
2 58700  97.4667  22.7966 0006075 226.8412 133.2319 15.26916796140117
TIANMU-1 16             
1 58701U 24004B   26196.59542794  .00002936  00000+0  11355-3 0  9997
2 58701  97.4615  22.0024 0004470 243.8228 116.2552 15.27019699140117
TIANMU-1 17             
1 58702U 24004C   26196.58091089  .00002983  00000+0  11535-3 0  9995
2 58702  97.4641  22.4832 0003930 250.0630 110.0185 15.27017315140101
TIANMU-1 18             
1 58703U 24004D   26196.62255310  .00002931  00000+0  11368-3 0  9997
2 58703  97.4659  22.7875 0003796 222.6940 137.4004 15.26932650140111
INSAT-3DS               
1 58990U 24033A   26196.57335508 -.00000166  00000+0  00000+0 0  9995
2 58990   0.0901 264.6548 0001074 224.7763  92.4622  1.00270876 47356
METEOR-M2 4             
1 59051U 24039A   26196.60158115 -.00000026  00000+0  78886-5 0  9999
2 59051  98.7025 155.5449 0008260  87.7614 272.4510 14.22432128123304
GOES 19                 
1 60133U 24119A   26196.54214461 -.00000258  00000+0  00000+0 0  9995
2 60133   0.0103 100.1257 0000432 110.8305 202.4055  1.00271363  7246
MTG-S1                  
1 64723U 25143A   26196.55694675 -.00000017  00000+0  00000+0 0  9995
2 64723   0.5843 345.1773 0003441 261.4037 246.9181  1.00273631  3703
METOP-SGA1              
1 65159U 25172A   26195.76442858  .00000019  00000+0  29163-4 0  9994
2 65159  98.6631 254.9090 0007098 333.3306  26.7504 14.19819127 47700
FENGYUN 3H              
1 65815U 25219A   26196.43889608  .00000008  00000+0  24168-4 0  9996
2 65815  98.6771 136.6595 0001145  62.5824 297.5469 14.19924815 41391
